GLOBALSTAR M084         
1 38040U 11080A   24206.40369865 -.00000079  00000+0  13631-3 0  9993
2 38040  52.0028 326.3678 0000917  95.0249 306.7135 12.62264523581276
GLOBALSTAR M080         
1 38041U 11080B   24206.53906397 -.00000084  00000+0  11132-3 0  9995
2 38041  52.0082 327.4470 0000828  78.4116 339.0256 12.62263069581411
GLOBALSTAR M082         
1 38042U 11080C   24206.57000278 -.00000066  00000+0  21184-3 0  9991
2 38042  52.0078 282.7660 0000901 160.8941 337.1190 12.62264262582126
GLOBALSTAR M092         
1 38043U 11080D   24206.52107282 -.00000081  00000+0  12956-3 0  9994
2 38043  52.0103  13.2710 0000965  91.6657 304.1030 12.62264102580571
GLOBALSTAR M090         
1 38044U 11080E   24206.58722824 -.00000065  00000+0  21637-3 0  9994
2 38044  51.9885 276.9448 0000607 153.9066 302.0060 12.62265249582241
GLOBALSTAR M086         
1 38045U 11080F   24206.62852220 -.00000073  00000+0  16945-3 0  9999
2 38045  51.9896 277.3435 0000424 313.6592 210.7743 12.62264753582197
GLOBALSTAR M097         
1 39072U 13005A   24206.38176743 -.00000116  00000+0 -68258-4 0  9995
2 39072  52.0020 192.3094 0000176 285.7637  74.3210 12.62269109529418
GLOBALSTAR M093         
1 39073U 13005B   24206.35486660 -.00000100  00000+0  19572-4 0  9992
2 39073  51.9785 186.2154 0000295 287.0560  73.0274 12.62276207529363
